{"fetched_at":"2026-03-29T02:12:04Z","count":15717,"tles":[{"name":"2026-052A","line1":"1 68198U 26052A   26085.62264051  .00000448  00000+0  31529-4 0  9993","line2":"2 68198  97.5376 161.7059 0012977 225.7685 134.2480 15.09879016  1583","category":"Other"}]}